KUIPER-00152            
1 65772U 25217L   26015.66668981 -.00009444  00000+0 -94439-3 0  9992
2 65772  51.8973 265.4393 0003540 169.1424 251.5643 14.90059725  5602
KUIPER-00153            
1 65773U 25217M   26015.08538291  .00005321  00000+0  32187-3 0  9999
2 65773  51.8784 277.1111 0013243 138.6651 221.5330 15.12098946 16981
KUIPER-00155            
1 65774U 25217N   26015.10222318  .00008895  00000+0  40220-3 0  9999
2 65774  51.8792 264.7865 0006548 141.5026 218.6422 15.21640588 17152
KUIPER-00156            
1 65775U 25217P   26015.66668981  .00013745  00000+0  97388-3 0  9998
2 65775  51.8870 261.9401 0003471 230.7865 359.7620 15.05043818  5136
KUIPER-00158            
1 65776U 25217Q   26014.92680105  .00006343  00000+0  85948-3 0  9994
2 65776  51.8983 283.3298 0001406  98.1350 261.9772 14.79968977 16883
KUIPER-00163            
1 65777U 25217R   26015.12658274  .00002240  00000+0  32270-3 0  9992
2 65777  51.8978 284.9496 0001093 101.5324 258.5762 14.79941797 16878
KUIPER-00165            
1 65778U 25217S   26015.66668981  .00013448  00000+0  16893-2 0  9992
2 65778  51.8995 270.1146 0001639 166.2973 276.7836 14.82357819  5402
KUIPER-00166            
1 65779U 25217T   26015.66668981 -.00838868  00000+0 -42463-1 0  9997
2 65779  51.8796 260.8451 0003030 142.2932 295.4637 15.19381761  5729
